[Satellite]
VERSION=1.1
NAME=CAPE 3
NICKNAME=CAPE 3
TLE1=1 47309U 21002A   22335.32923309  .00012801  00000-0  45445-3 0  9991
TLE2=2 47309  60.6816  95.3009 0041828  78.2268 282.3509 15.28602340103929
STATUS=0
